{
  "type": "FeatureCollection",
  "features": [
    {
      "type": "Feature",
      "properties": {
        "norad_id": 40894,
        "name": "GAOFEN-9 01",
        "group": "resource",
        "lat": 26.448632547336206,
        "lon": 20.628665874666584,
        "alt_km": 601.2221809357088,
        "timestamp": "2025-12-11T10:53:15.542148+00:00",
        "meta_object_name": "GAOFEN-9 01",
        "meta_object_id": "2015-047A",
        "meta_epoch": "2025-12-11T04:17:17.870784",
        "meta_mean_motion": 14.82415643,
        "meta_eccentricity": 0.002851,
        "meta_inclination": 97.6544,
        "meta_ra_of_asc_node": 24.2016,
        "meta_arg_of_pericenter": 39.2249,
        "meta_mean_anomaly": 321.1023,
        "meta_ephemeris_type": 0,
        "meta_classification_type": "U",
        "meta_norad_cat_id": 40894,
        "meta_element_set_no": 999,
        "meta_rev_at_epoch": 55233,
        "meta_bstar": 0.00022592,
        "meta_mean_motion_dot": 1.772e-05,
        "meta_mean_motion_ddot": 0,
        "tle_line1": "1 40894U 15047A   25345.17867906  .00001772  00000+0  22592-3 0  9994",
        "tle_line2": "2 40894  97.6544  24.2016 0028510  39.2249 321.1023 14.82415643552330"
      },
      "geometry": {
        "type": "Point",
        "coordinates": [
          20.628665874666584,
          26.448632547336206
        ]
      }
    },
    {
      "type": "Feature",
      "properties": {
        "norad_id": 41026,
        "name": "YAOGAN-28",
        "group": "resource",
        "lat": -15.576168639945875,
        "lon": 125.32434488293808,
        "alt_km": 504.7061960653964,
        "timestamp": "2025-12-11T10:53:15.542159+00:00",
        "meta_object_name": "YAOGAN-28",
        "meta_object_id": "2015-064A",
        "meta_epoch": "2025-12-11T04:39:16.366752",
        "meta_mean_motion": 15.24311398,
        "meta_eccentricity": 0.001233,
        "meta_inclination": 97.2805,
        "meta_ra_of_asc_node": 123.0297,
        "meta_arg_of_pericenter": 131.0186,
        "meta_mean_anomaly": 229.212,
        "meta_ephemeris_type": 0,
        "meta_classification_type": "U",
        "meta_norad_cat_id": 41026,
        "meta_element_set_no": 999,
        "meta_rev_at_epoch": 56201,
        "meta_bstar": 0.00057492,
        "meta_mean_motion_dot": 0.00014028,
        "meta_mean_motion_ddot": 0,
        "tle_line1": "1 41026U 15064A   25345.19393943  .00014028  00000+0  57492-3 0  9993",
        "tle_line2": "2 41026  97.2805 123.0297 0012330 131.0186 229.2120 15.24311398562018"
      },
      "geometry": {
        "type": "Point",
        "coordinates": [
          125.32434488293808,
          -15.576168639945875
        ]
      }
    },
    {
      "type": "Feature",
      "properties": {
        "norad_id": 41038,
        "name": "YAOGAN-29",
        "group": "resource",
        "lat": -81.58968378180718,
        "lon": 81.14603880070116,
        "alt_km": 627.5162884691517,
        "timestamp": "2025-12-11T10:53:15.542170+00:00",
        "meta_object_name": "YAOGAN-29",
        "meta_object_id": "2015-069A",
        "meta_epoch": "2025-12-11T04:48:13.856832",
        "meta_mean_motion": 14.82877588,
        "meta_eccentricity": 3.12e-05,
        "meta_inclination": 98.022,
        "meta_ra_of_asc_node": 8.3667,
        "meta_arg_of_pericenter": 338.7179,
        "meta_mean_anomaly": 21.4021,
        "meta_ephemeris_type": 0,
        "meta_classification_type": "U",
        "meta_norad_cat_id": 41038,
        "meta_element_set_no": 999,
        "meta_rev_at_epoch": 54276,
        "meta_bstar": 1.9516e-05,
        "meta_mean_motion_dot": 1.04e-06,
        "meta_mean_motion_ddot": 0,
        "tle_line1": "1 41038U 15069A   25345.20016038  .00000104  00000+0  19516-4 0  9996",
        "tle_line2": "2 41038  98.0220   8.3667 0000312 338.7179  21.4021 14.82877588542765"
      },
      "geometry": {
        "type": "Point",
        "coordinates": [
          81.14603880070116,
          -81.58968378180718
        ]
      }
    },
    {
      "type": "Feature",
      "properties": {
        "norad_id": 41167,
        "name": "KENT RIDGE 1",
        "group": "resource",
        "lat": -10.810686775459578,
        "lon": 175.1111222065083,
        "alt_km": 504.9575832885894,
        "timestamp": "2025-12-11T10:53:15.542181+00:00",
        "meta_object_name": "KENT RIDGE 1",
        "meta_object_id": "2015-077B",
        "meta_epoch": "2025-12-10T22:30:20.164032",
        "meta_mean_motion": 15.21613004,
        "meta_eccentricity": 0.0008534,
        "meta_inclination": 14.9787,
        "meta_ra_of_asc_node": 224.5126,
        "meta_arg_of_pericenter": 105.1226,
        "meta_mean_anomaly": 255.004,
        "meta_ephemeris_type": 0,
        "meta_classification_type": "U",
        "meta_norad_cat_id": 41167,
        "meta_element_set_no": 999,
        "meta_rev_at_epoch": 55236,
        "meta_bstar": 0.000254,
        "meta_mean_motion_dot": 6.673e-05,
        "meta_mean_motion_ddot": 0,
        "tle_line1": "1 41167U 15077B   25344.93773338  .00006673  00000+0  25400-3 0  9995",
        "tle_line2": "2 41167  14.9787 224.5126 0008534 105.1226 255.0040 15.21613004552366"
      },
      "geometry": {
        "type": "Point",
        "coordinates": [
          175.1111222065083,
          -10.810686775459578
        ]
      }
    },
    {
      "type": "Feature",
      "properties": {
        "norad_id": 41194,
        "name": "GAOFEN-4",
        "group": "resource",
        "lat": -0.1628279625286076,
        "lon": -10.563322589128951,
        "alt_km": 35800.83174346547,
        "timestamp": "2025-12-11T10:53:15.542197+00:00",
        "meta_object_name": "GAOFEN-4",
        "meta_object_id": "2015-083A",
        "meta_epoch": "2025-12-11T00:19:06.646368",
        "meta_mean_motion": 1.00270154,
        "meta_eccentricity": 0.0003561,
        "meta_inclination": 0.1664,
        "meta_ra_of_asc_node": 80.8595,
        "meta_arg_of_pericenter": 106.7629,
        "meta_mean_anomaly": 2.8369,
        "meta_ephemeris_type": 0,
        "meta_classification_type": "U",
        "meta_norad_cat_id": 41194,
        "meta_element_set_no": 999,
        "meta_rev_at_epoch": 3664,
        "meta_bstar": 0,
        "meta_mean_motion_dot": -3.29e-06,
        "meta_mean_motion_ddot": 0,
        "tle_line1": "1 41194U 15083A   25345.01327137 -.00000329  00000+0  00000+0 0  9992",
        "tle_line2": "2 41194   0.1664  80.8595 0003561 106.7629   2.8369  1.00270154 36646"
      },
      "geometry": {
        "type": "Point",
        "coordinates": [
          -10.563322589128951,
          -0.1628279625286076
        ]
      }
    },
    {
      "type": "Feature",
      "properties": {
        "norad_id": 41240,
        "name": "JASON-3",
        "group": "resource",
        "lat": 58.87766355864758,
        "lon": -66.9040541196413,
        "alt_km": 1309.551288376554,
        "timestamp": "2025-12-11T10:53:15.542209+00:00",
        "meta_object_name": "JASON-3",
        "meta_object_id": "2016-002A",
        "meta_epoch": "2025-12-11T04:43:24.794400",
        "meta_mean_motion": 12.87626444,
        "meta_eccentricity": 0.0007154,
        "meta_inclination": 66.0389,
        "meta_ra_of_asc_node": 161.0681,
        "meta_arg_of_pericenter": 270.7393,
        "meta_mean_anomaly": 89.2806,
        "meta_ephemeris_type": 0,
        "meta_classification_type": "U",
        "meta_norad_cat_id": 41240,
        "meta_element_set_no": 999,
        "meta_rev_at_epoch": 46304,
        "meta_bstar": 9.2565e-05,
        "meta_mean_motion_dot": -3.9e-07,
        "meta_mean_motion_ddot": 0,
        "tle_line1": "1 41240U 16002A   25345.19681475 -.00000039  00000+0  92565-4 0  9993",
        "tle_line2": "2 41240  66.0389 161.0681 0007154 270.7393  89.2806 12.87626444463040"
      },
      "geometry": {
        "type": "Point",
        "coordinates": [
          -66.9040541196413,
          58.87766355864758
        ]
      }
    },
    {
      "type": "Feature",
      "properties": {
        "norad_id": 41335,
        "name": "SENTINEL-3A",
        "group": "resource",
        "lat": -50.58351676606603,
        "lon": -140.15648415191134,
        "alt_km": 810.0162779482398,
        "timestamp": "2025-12-11T10:53:15.542219+00:00",
        "meta_object_name": "SENTINEL-3A",
        "meta_object_id": "2016-011A",
        "meta_epoch": "2025-12-11T04:45:27.112608",
        "meta_mean_motion": 14.26745619,
        "meta_eccentricity": 9.47e-05,
        "meta_inclination": 98.6209,
        "meta_ra_of_asc_node": 50.2287,
        "meta_arg_of_pericenter": 93.971,
        "meta_mean_anomaly": 266.1579,
        "meta_ephemeris_type": 0,
        "meta_classification_type": "U",
        "meta_norad_cat_id": 41335,
        "meta_element_set_no": 999,
        "meta_rev_at_epoch": 51125,
        "meta_bstar": 0.00010457,
        "meta_mean_motion_dot": 2.09e-06,
        "meta_mean_motion_ddot": 0,
        "tle_line1": "1 41335U 16011A   25345.19823047  .00000209  00000+0  10457-3 0  9998",
        "tle_line2": "2 41335  98.6209  50.2287 0000947  93.9710 266.1579 14.26745619511250"
      },
      "geometry": {
        "type": "Point",
        "coordinates": [
          -140.15648415191134,
          -50.58351676606603
        ]
      }
    }
  ]
}